SAUDISAT 1C (SO-50)     
1 27607U 02058C   26088.17575870  .00001879  00000+0  23847-3 0  9992
2 27607  64.5539  16.5038 0075442 277.0481  82.2049 14.82859188252592
SAUDISAT 2              
1 28371U 04025F   26087.93588300  .00000350  00000+0  89180-4 0  9998
2 28371  98.5507  85.8502 0024666 180.5167 179.6009 14.56631381154063
SAUDISAT 3              
1 31118U 07012B   26087.81081802  .00000377  00000+0  69110-4 0  9992
2 31118  98.1378  38.1981 0015794 120.4829 239.7940 14.71370150 15924
PISAT                   
1 41784U 16059B   26088.24062685  .00001460  00000+0  25640-3 0  9992
2 41784  97.8193  92.1363 0030579 100.4738 259.9916 14.68823332508008
FLYING LAPTOP           
1 42831U 17042G   26088.18268010  .00002478  00000+0  19964-3 0  9994
2 42831  97.4331 246.9977 0020032  35.1632 325.0910 15.00641606474451
SALSAT                  
1 46495U 20068K   26087.98694119  .00010179  00000+0  36891-3 0  9991
2 46495  97.8861  86.2455 0008782 214.9729 145.0934 15.28549734303109
